*******************************************************************************
Ephemeris / WWW_USER Mon Mar 10 14:45:50 2025 Pasadena, USA      / Horizons    
*******************************************************************************
Target body name: (2018 RC)                       {source: JPL#21}
Center body name: Earth (399)                     {source: DE441}
Center-site name: Gemini South Obs., Cerro Pachon
*******************************************************************************
Start time      : A.D. 2018-Sep-29 22:51:00.0000 UT      
Stop  time      : A.D. 2018-Sep-30 10:14:00.0000 UT      
Step-size       : 1 minutes
*******************************************************************************
Target pole/equ : undefined
Target radii    : undefined                                                    
Center geodetic : 289.2634, -30.2406227, 2.71233  {E-lon(deg),Lat(deg),Alt(km)}
Center cylindric: 289.2634,5517.21435,-3194.81213 {E-lon(deg),Dxy(km),Dz(km)}
Center pole/equ : ITRF93                          {East-longitude positive}
Center radii    : 6378.137, 6378.137, 6356.752 km {Equator_a, b, pole_c}       
Target primary  : Sun
Vis. interferer : MOON (R_eq= 1737.400) km        {source: DE441}
Rel. light bend : Sun                             {source: DE441}
Rel. lght bnd GM: 1.3271E+11 km^3/s^2                                          
Small-body perts: Yes                             {source: SB441-N16}
Atmos refraction: NO (AIRLESS)
RA format       : HMS
Time format     : CAL 
Calendar mode   : Mixed Julian/Gregorian
RTS-only print  : NO       
EOP file        : eop.250307.p250603                                           
EOP coverage    : DATA-BASED 1962-JAN-20 TO 2025-MAR-07. PREDICTS-> 2025-JUN-02
Units conversion: 1 au= 149597870.700 km, c= 299792.458 km/s, 1 day= 86400.0 s 
Table cut-offs 1: Elevation (-90.0deg=NO ),Airmass (>38.000=NO), Daylight (YES)
Table cut-offs 2: Solar elongation (  0.0,180.0=NO ),Local Hour Angle( 0.0=NO )
Table cut-offs 3: RA/DEC angular rate (     0.0=NO )                           
*******************************************************************************
Initial IAU76/J2000 heliocentric ecliptic osculating elements (au, days, deg.):
  EPOCH=  2458369.5 ! 2018-Sep-08.00 (TDB)         Residual RMS= .84866        
   EC= .2426621660028976   QR= .647471518312811    TP= 2458473.8617576878      
   OM= 346.8893436915528   W=  145.8737085184167   IN= 1.612045057594462       
  Equivalent ICRF heliocentric cartesian coordinates (au, au/d):
   X= 9.781363708094483E-01  Y=-2.377942828764822E-01  Z=-1.040448782093900E-01
  VX= 1.501011538102481E-03 VY= 1.393070215815854E-02 VZ= 6.509326736836346E-03
Asteroid physical parameters (km, seconds, rotational period in hours):        
   GM= n.a.                RAD= n.a.               ROTPER= .16548              
   H= 24.93                G= .150                 B-V= n.a.                   
                           ALBEDO= n.a.            STYP= n.a.                  
*******************************************************************************
 Date__(UT)__HR:MN     R.A._________(ICRF)_________DEC
******************************************************
$$SOE
 2018-Sep-29 22:51 C   13 15 39.905252 +01 29 33.36967
 2018-Sep-29 22:52 C   13 15 39.871140 +01 29 33.41729
 2018-Sep-29 22:53 C   13 15 39.837187 +01 29 33.46488
 2018-Sep-29 22:54 C   13 15 39.803394 +01 29 33.51246
 2018-Sep-29 22:55 C   13 15 39.769759 +01 29 33.56001
 2018-Sep-29 22:56 C   13 15 39.736284 +01 29 33.60755
 2018-Sep-29 22:57 C   13 15 39.702968 +01 29 33.65506
 2018-Sep-29 22:58 C   13 15 39.669811 +01 29 33.70255
 2018-Sep-29 22:59 C   13 15 39.636814 +01 29 33.75003
 2018-Sep-29 23:00 C   13 15 39.603976 +01 29 33.79748
 2018-Sep-29 23:01 C   13 15 39.571298 +01 29 33.84492
 2018-Sep-29 23:02 C   13 15 39.538779 +01 29 33.89233
 2018-Sep-29 23:03 C   13 15 39.506420 +01 29 33.93973
 2018-Sep-29 23:04 C   13 15 39.474221 +01 29 33.98711
 2018-Sep-29 23:05 C   13 15 39.442182 +01 29 34.03447
 2018-Sep-29 23:06 C   13 15 39.410302 +01 29 34.08182
 2018-Sep-29 23:07 C   13 15 39.378582 +01 29 34.12914
 2018-Sep-29 23:08 N   13 15 39.347022 +01 29 34.17645
 2018-Sep-29 23:09 N   13 15 39.315621 +01 29 34.22375
 2018-Sep-29 23:10 N   13 15 39.284381 +01 29 34.27102
 2018-Sep-29 23:11 N   13 15 39.253301 +01 29 34.31828
 2018-Sep-29 23:12 N   13 15 39.222380 +01 29 34.36552
 2018-Sep-29 23:13 N   13 15 39.191620 +01 29 34.41275
 2018-Sep-29 23:14 N   13 15 39.161020 +01 29 34.45996
 2018-Sep-29 23:15 N   13 15 39.130579 +01 29 34.50715
 2018-Sep-29 23:16 N   13 15 39.100299 +01 29 34.55433
 2018-Sep-29 23:17 N   13 15 39.070179 +01 29 34.60150
 2018-Sep-29 23:18 N   13 15 39.040219 +01 29 34.64865
 2018-Sep-29 23:19 N   13 15 39.010418 +01 29 34.69578
 2018-Sep-29 23:20 N   13 15 38.980778 +01 29 34.74290
 2018-Sep-29 23:21 N   13 15 38.951298 +01 29 34.79001
 2018-Sep-29 23:22 N   13 15 38.921979 +01 29 34.83710
 2018-Sep-29 23:23 N   13 15 38.892819 +01 29 34.88418
 2018-Sep-29 23:24 N   13 15 38.863819 +01 29 34.93125
 2018-Sep-29 23:25 N   13 15 38.834979 +01 29 34.97830
 2018-Sep-29 23:26 N   13 15 38.806299 +01 29 35.02534
 2018-Sep-29 23:27 N   13 15 38.777780 +01 29 35.07237
 2018-Sep-29 23:28 N   13 15 38.749420 +01 29 35.11938
 2018-Sep-29 23:29 N   13 15 38.721220 +01 29 35.16639
 2018-Sep-29 23:30 N   13 15 38.693180 +01 29 35.21338
 2018-Sep-29 23:31 N   13 15 38.665300 +01 29 35.26036
 2018-Sep-29 23:32 Ns  13 15 38.637579 +01 29 35.30733
 2018-Sep-29 23:33 N   13 15 38.610019 +01 29 35.35429
 2018-Sep-29 23:34 N   13 15 38.582618 +01 29 35.40124
 2018-Sep-29 23:35 N   13 15 38.555377 +01 29 35.44817
 2018-Sep-29 23:36 A   13 15 38.528296 +01 29 35.49510
 2018-Sep-29 23:37 A   13 15 38.501374 +01 29 35.54202
 2018-Sep-29 23:38 A   13 15 38.474612 +01 29 35.58893
 2018-Sep-29 23:39 A   13 15 38.448009 +01 29 35.63582
 2018-Sep-29 23:40 A   13 15 38.421566 +01 29 35.68271
 2018-Sep-29 23:41 A   13 15 38.395282 +01 29 35.72959
 2018-Sep-29 23:42 A   13 15 38.369158 +01 29 35.77646
 2018-Sep-29 23:43 A   13 15 38.343193 +01 29 35.82333
 2018-Sep-29 23:44 A   13 15 38.317386 +01 29 35.87018
 2018-Sep-29 23:45 A   13 15 38.291739 +01 29 35.91703
 2018-Sep-29 23:46 A   13 15 38.266251 +01 29 35.96387
 2018-Sep-29 23:47 A   13 15 38.240922 +01 29 36.01070
 2018-Sep-29 23:48 A   13 15 38.215752 +01 29 36.05753
 2018-Sep-29 23:49 A   13 15 38.190741 +01 29 36.10434
 2018-Sep-29 23:50 A   13 15 38.165888 +01 29 36.15115
 2018-Sep-29 23:51 A   13 15 38.141194 +01 29 36.19796
 2018-Sep-29 23:52 A   13 15 38.116658 +01 29 36.24476
 2018-Sep-29 23:53 A   13 15 38.092281 +01 29 36.29155
 2018-Sep-29 23:54 A   13 15 38.068062 +01 29 36.33834
 2018-Sep-29 23:55 A   13 15 38.044001 +01 29 36.38512
 2018-Sep-29 23:56 A   13 15 38.020098 +01 29 36.43190
 2018-Sep-29 23:57 A   13 15 37.996353 +01 29 36.47867
 2018-Sep-29 23:58 A   13 15 37.972766 +01 29 36.52544
 2018-Sep-29 23:59 A   13 15 37.949337 +01 29 36.57220
 2018-Sep-30 00:00 A   13 15 37.926065 +01 29 36.61896
 2018-Sep-30 00:01 A   13 15 37.902951 +01 29 36.66572
 2018-Sep-30 00:02 A   13 15 37.879994 +01 29 36.71247
 2018-Sep-30 00:03 A   13 15 37.857195 +01 29 36.75922
 2018-Sep-30 00:04     13 15 37.834552 +01 29 36.80596
 2018-Sep-30 00:05     13 15 37.812067 +01 29 36.85270
 2018-Sep-30 00:06     13 15 37.789738 +01 29 36.89944
 2018-Sep-30 00:07     13 15 37.767566 +01 29 36.94618
 2018-Sep-30 00:08     13 15 37.745550 +01 29 36.99292
 2018-Sep-30 00:09     13 15 37.723691 +01 29 37.03965
 2018-Sep-30 00:10     13 15 37.701988 +01 29 37.08638
 2018-Sep-30 00:11     13 15 37.680441 +01 29 37.13311
 2018-Sep-30 00:12     13 15 37.659050 +01 29 37.17984
 2018-Sep-30 00:13     13 15 37.637815 +01 29 37.22657
 2018-Sep-30 00:14     13 15 37.616736 +01 29 37.27330
 2018-Sep-30 00:15     13 15 37.595812 +01 29 37.32003
 2018-Sep-30 00:16     13 15 37.575043 +01 29 37.36676
 2018-Sep-30 00:17     13 15 37.554429 +01 29 37.41349
 2018-Sep-30 00:18     13 15 37.533970 +01 29 37.46021
 2018-Sep-30 00:19     13 15 37.513666 +01 29 37.50694
 2018-Sep-30 00:20     13 15 37.493517 +01 29 37.55367
 2018-Sep-30 00:21     13 15 37.473522 +01 29 37.60040
 2018-Sep-30 00:22     13 15 37.453681 +01 29 37.64714
 2018-Sep-30 00:23     13 15 37.433994 +01 29 37.69387
 2018-Sep-30 00:24     13 15 37.414461 +01 29 37.74061
 2018-Sep-30 00:25     13 15 37.395081 +01 29 37.78735
 2018-Sep-30 00:26     13 15 37.375855 +01 29 37.83409
 2018-Sep-30 00:27     13 15 37.356783 +01 29 37.88083
 2018-Sep-30 00:28     13 15 37.337863 +01 29 37.92758
 2018-Sep-30 00:29     13 15 37.319096 +01 29 37.97433
 2018-Sep-30 00:30     13 15 37.300482 +01 29 38.02108
 2018-Sep-30 00:31     13 15 37.282020 +01 29 38.06784
 2018-Sep-30 00:32     13 15 37.263710 +01 29 38.11460
 2018-Sep-30 00:33     13 15 37.245552 +01 29 38.16136
 2018-Sep-30 00:34     13 15 37.227546 +01 29 38.20813
 2018-Sep-30 00:35     13 15 37.209692 +01 29 38.25491
 2018-Sep-30 00:36     13 15 37.191989 +01 29 38.30169
 2018-Sep-30 00:37     13 15 37.174437 +01 29 38.34847
 2018-Sep-30 00:38     13 15 37.157035 +01 29 38.39526
 2018-Sep-30 00:39     13 15 37.139785 +01 29 38.44205
 2018-Sep-30 00:40     13 15 37.122684 +01 29 38.48886
 2018-Sep-30 00:41     13 15 37.105734 +01 29 38.53566
 2018-Sep-30 00:42     13 15 37.088934 +01 29 38.58248
 2018-Sep-30 00:43     13 15 37.072283 +01 29 38.62929
 2018-Sep-30 00:44     13 15 37.055782 +01 29 38.67612
 2018-Sep-30 00:45     13 15 37.039430 +01 29 38.72295
 2018-Sep-30 00:46     13 15 37.023226 +01 29 38.76980
 2018-Sep-30 00:47     13 15 37.007172 +01 29 38.81664
 2018-Sep-30 00:48     13 15 36.991266 +01 29 38.86350
 2018-Sep-30 00:49     13 15 36.975507 +01 29 38.91036
 2018-Sep-30 00:50     13 15 36.959897 +01 29 38.95724
 2018-Sep-30 00:51     13 15 36.944434 +01 29 39.00412
 2018-Sep-30 00:52     13 15 36.929119 +01 29 39.05101
 2018-Sep-30 00:53     13 15 36.913950 +01 29 39.09791
